<?xml version="1.0" encoding="UTF-8"?>
<ndm xmlns:xsi="http://www.w3.org/2001/XMLSchema-instance" xsi:noNamespaceSchemaLocation="https://sanaregistry.org/r/ndmxml_unqualified/ndmxml-2.0.0-master-2.0.xsd">
<omm id="CCSDS_OMM_VERS" version="2.0">
<header><CREATION_DATE/><ORIGINATOR/></header><body><segment><metadata><OBJECT_NAME>ORBCOMM FM115</OBJECT_NAME><OBJECT_ID>2015-081H</OBJECT_ID><CENTER_NAME>EARTH</CENTER_NAME><REF_FRAME>TEME</REF_FRAME><TIME_SYSTEM>UTC</TIME_SYSTEM><MEAN_ELEMENT_THEORY>SGP4</MEAN_ELEMENT_THEORY></metadata><data><meanElements><EPOCH>2025-08-01T09:51:51.465312</EPOCH><MEAN_MOTION>14.62561470</MEAN_MOTION><ECCENTRICITY>.000173</ECCENTRICITY><INCLINATION>46.9972</INCLINATION><RA_OF_ASC_NODE>184.4619</RA_OF_ASC_NODE><ARG_OF_PERICENTER>280.0093</ARG_OF_PERICENTER><MEAN_ANOMALY>80.0598</MEAN_ANOMALY></meanElements><tleParameters><EPHEMERIS_TYPE>0</EPHEMERIS_TYPE><CLASSIFICATION_TYPE>U</CLASSIFICATION_TYPE><NORAD_CAT_ID>41186</NORAD_CAT_ID><ELEMENT_SET_NO>999</ELEMENT_SET_NO><REV_AT_EPOCH>51439</REV_AT_EPOCH><BSTAR>.18953E-3</BSTAR><MEAN_MOTION_DOT>.796E-5</MEAN_MOTION_DOT><MEAN_MOTION_DDOT>0</MEAN_MOTION_DDOT></tleParameters></data></segment></body></omm>
<omm id="CCSDS_OMM_VERS" version="2.0">
<header><CREATION_DATE/><ORIGINATOR/></header><body><segment><metadata><OBJECT_NAME>ORBCOMM FM108</OBJECT_NAME><OBJECT_ID>2015-081J</OBJECT_ID><CENTER_NAME>EARTH</CENTER_NAME><REF_FRAME>TEME</REF_FRAME><TIME_SYSTEM>UTC</TIME_SYSTEM><MEAN_ELEMENT_THEORY>SGP4</MEAN_ELEMENT_THEORY></metadata><data><meanElements><EPOCH>2025-08-01T04:29:38.302368</EPOCH><MEAN_MOTION>14.58212617</MEAN_MOTION><ECCENTRICITY>.0002422</ECCENTRICITY><INCLINATION>47.0038</INCLINATION><RA_OF_ASC_NODE>254.4501</RA_OF_ASC_NODE><ARG_OF_PERICENTER>189.3944</ARG_OF_PERICENTER><MEAN_ANOMALY>170.6896</MEAN_ANOMALY></meanElements><tleParameters><EPHEMERIS_TYPE>0</EPHEMERIS_TYPE><CLASSIFICATION_TYPE>U</CLASSIFICATION_TYPE><NORAD_CAT_ID>41187</NORAD_CAT_ID><ELEMENT_SET_NO>999</ELEMENT_SET_NO><REV_AT_EPOCH>51344</REV_AT_EPOCH><BSTAR>.13229E-3</BSTAR><MEAN_MOTION_DOT>.446E-5</MEAN_MOTION_DOT><MEAN_MOTION_DDOT>0</MEAN_MOTION_DDOT></tleParameters></data></segment></body></omm>
<omm id="CCSDS_OMM_VERS" version="2.0">
<header><CREATION_DATE/><ORIGINATOR/></header><body><segment><metadata><OBJECT_NAME>ORBCOMM FM117</OBJECT_NAME><OBJECT_ID>2015-081K</OBJECT_ID><CENTER_NAME>EARTH</CENTER_NAME><REF_FRAME>TEME</REF_FRAME><TIME_SYSTEM>UTC</TIME_SYSTEM><MEAN_ELEMENT_THEORY>SGP4</MEAN_ELEMENT_THEORY></metadata><data><meanElements><EPOCH>2025-08-01T11:54:15.423840</EPOCH><MEAN_MOTION>14.58216456</MEAN_MOTION><ECCENTRICITY>.0003166</ECCENTRICITY><INCLINATION>47.0001</INCLINATION><RA_OF_ASC_NODE>251.7381</RA_OF_ASC_NODE><ARG_OF_PERICENTER>195.2128</ARG_OF_PERICENTER><MEAN_ANOMALY>164.8662</MEAN_ANOMALY></meanElements><tleParameters><EPHEMERIS_TYPE>0</EPHEMERIS_TYPE><CLASSIFICATION_TYPE>U</CLASSIFICATION_TYPE><NORAD_CAT_ID>41188</NORAD_CAT_ID><ELEMENT_SET_NO>999</ELEMENT_SET_NO><REV_AT_EPOCH>51350</REV_AT_EPOCH><BSTAR>.13086E-3</BSTAR><MEAN_MOTION_DOT>.439E-5</MEAN_MOTION_DOT><MEAN_MOTION_DDOT>0</MEAN_MOTION_DDOT></tleParameters></data></segment></body></omm>
<omm id="CCSDS_OMM_VERS" version="2.0">
<header><CREATION_DATE/><ORIGINATOR/></header><body><segment><metadata><OBJECT_NAME>ORBCOMM FM116</OBJECT_NAME><OBJECT_ID>2015-081L</OBJECT_ID><CENTER_NAME>EARTH</CENTER_NAME><REF_FRAME>TEME</REF_FRAME><TIME_SYSTEM>UTC</TIME_SYSTEM><MEAN_ELEMENT_THEORY>SGP4</MEAN_ELEMENT_THEORY></metadata><data><meanElements><EPOCH>2025-07-31T19:08:56.316192</EPOCH><MEAN_MOTION>14.58291234</MEAN_MOTION><ECCENTRICITY>.000162</ECCENTRICITY><INCLINATION>47.0037</INCLINATION><RA_OF_ASC_NODE>344.8673</RA_OF_ASC_NODE><ARG_OF_PERICENTER>340.3859</ARG_OF_PERICENTER><MEAN_ANOMALY>19.6964</MEAN_ANOMALY></meanElements><tleParameters><EPHEMERIS_TYPE>0</EPHEMERIS_TYPE><CLASSIFICATION_TYPE>U</CLASSIFICATION_TYPE><NORAD_CAT_ID>41189</NORAD_CAT_ID><ELEMENT_SET_NO>999</ELEMENT_SET_NO><REV_AT_EPOCH>51216</REV_AT_EPOCH><BSTAR>.21263E-3</BSTAR><MEAN_MOTION_DOT>.822E-5</MEAN_MOTION_DOT><MEAN_MOTION_DDOT>0</MEAN_MOTION_DDOT></tleParameters></data></segment></body></omm>
</ndm>
